{
  "type": "FeatureCollection",
  "features": [
    {
      "type": "Feature",
      "geometry": {
        "type": "Point",
        "coordinates": [
          -0.0888924,
          51.5191859
        ]
      },
      "properties": {
        "bauwerk_id": "bw_1_broadgate_1_2_broadgate_donor_stahl",
        "bauwerk_name": "1 Broadgate",
        "address": "1 Broadgate, London EC2M 2SY, UK",
        "confidence": "high",
        "evidence_status": "verified_street",
        "staedte": "",
        "laender": "",
        "linked_bauteilgruppen": 1,
        "linked_projekte": "p_roots_in_the_sky_blackfriars_crown_court",
        "source_url": "https://www.broadgate.co.uk/",
        "notes": ""
      }
    },
    {
      "type": "Feature",
      "geometry": {
        "type": "Point",
        "coordinates": [
          -0.0888924,
          51.5191859
        ]
      },
      "properties": {
        "bauwerk_id": "bw_1_broadgate_london",
        "bauwerk_name": "1 Broadgate, London",
        "address": "1 Broadgate, London EC2M 2SY, UK",
        "confidence": "high",
        "evidence_status": "verified_street",
        "staedte": "London",
        "laender": "",
        "linked_bauteilgruppen": 1,
        "linked_projekte": "p_55_great_suffolk_street_london",
        "source_url": "https://www.broadgate.co.uk/",
        "notes": ""
      }
    },
    {
      "type": "Feature",
      "geometry": {
        "type": "Point",
        "coordinates": [
          -0.1463435,
          51.5152626
        ]
      },
      "properties": {
        "bauwerk_id": "bw_318_oxford_street_house_of_fraser",
        "bauwerk_name": "318 Oxford Street",
        "address": "318 Oxford Street, London W1C 1HF, UK",
        "confidence": "high",
        "evidence_status": "verified_street",
        "staedte": "London",
        "laender": "Vereinigtes Königreich",
        "linked_bauteilgruppen": 2,
        "linked_projekte": "p_house_of_fraser_318_oxford_street_tbc_london_reuse_chain",
        "source_url": "https://www.stiffandtrevillion.com/projects/tower-bridge-road",
        "notes": ""
      }
    },
    {
      "type": "Feature",
      "geometry": {
        "type": "Point",
        "coordinates": [
          9.832174,
          52.3308126
        ]
      },
      "properties": {
        "bauwerk_id": "bw_alte_lackiererei_hannover",
        "bauwerk_name": "alte/stillgelegte…",
        "address": "Treppenkamp area, Hannover-Kronsberg, Germany",
        "confidence": "low",
        "evidence_status": "area_only",
        "staedte": "Hannover",
        "laender": "Deutschland",
        "linked_bauteilgruppen": 1,
        "linked_projekte": "p_recyclinghaus_hannover",
        "source_url": "https://www.gundlach-bau.de/projekte/recyclinghaus-hannover",
        "notes": ""
      }
    },
    {
      "type": "Feature",
      "geometry": {
        "type": "Point",
        "coordinates": [
          4.5607099,
          50.2949873
        ]
      },
      "properties": {
        "bauwerk_id": "bw_altes_projekt_in_hanzinelle",
        "bauwerk_name": "Altes Projekt in…",
        "address": "Hanzinelle, Belgium (former project site)",
        "confidence": "low",
        "evidence_status": "area_only",
        "staedte": "",
        "laender": "",
        "linked_bauteilgruppen": 1,
        "linked_projekte": "p_verbiest_karreveld_brussels",
        "source_url": "archive:Verbiest_Karreveld_Brussels.md",
        "notes": ""
      }
    },
    {
      "type": "Feature",
      "geometry": {
        "type": "Point",
        "coordinates": [
          6.7680311,
          51.2210197
        ]
      },
      "properties": {
        "bauwerk_id": "bw_behrensbau_duesseldorf_donor",
        "bauwerk_name": "Behrensbau Düsseldorf…",
        "address": "Mannesmannufer 2, 40213 Düsseldorf, Germany",
        "confidence": "high",
        "evidence_status": "verified_street",
        "staedte": "Düsseldorf",
        "laender": "",
        "linked_bauteilgruppen": 2,
        "linked_projekte": "p_awm_muenster_circular_office",
        "source_url": "https://www.hdgnrw.de/ueber-uns/behrensbau",
        "notes": ""
      }
    },
    {
      "type": "Feature",
      "geometry": {
        "type": "Point",
        "coordinates": [
          13.676873,
          52.5511184
        ]
      },
      "properties": {
        "bauwerk_id": "bw_berlin_marzahn_wbs70_plattenbau",
        "bauwerk_name": "Berliner/Marzahner…",
        "address": "Berlin-Marzahn, Germany",
        "confidence": "low",
        "evidence_status": "district_only",
        "staedte": "Berlin",
        "laender": "Deutschland",
        "linked_bauteilgruppen": 1,
        "linked_projekte": "p_berlin_schildow_pilot_house",
        "source_url": "https://www.kuladig.de/Objektansicht/BKM-31000252",
        "notes": ""
      }
    },
    {
      "type": "Feature",
      "geometry": {
        "type": "Point",
        "coordinates": [
          5.3652891,
          51.6509141
        ]
      },
      "properties": {
        "bauwerk_id": "bw_bibliothek_de_brenthof_sint_michielsgestel",
        "bauwerk_name": "Bibliothek De Brenthof…",
        "address": "Sint-Michielsgestel, Netherlands",
        "confidence": "low",
        "evidence_status": "municipality_only",
        "staedte": "",
        "laender": "",
        "linked_bauteilgruppen": 1,
        "linked_projekte": "p_woongroep_boschgaard_den_bosch",
        "source_url": "processed",
        "notes": ""
      }
    },
    {
      "type": "Feature",
      "geometry": {
        "type": "Point",
        "coordinates": [
          4.4502649,
          52.1710283
        ]
      },
      "properties": {
        "bauwerk_id": "bw_biopartner_gorlaeus_hochhaus",
        "bauwerk_name": "Gorlaeus (Biopartner)",
        "address": "De Limes 7, 2342 DH Oegstgeest, Netherlands",
        "confidence": "high",
        "evidence_status": "verified_street",
        "staedte": "",
        "laender": "Niederlande",
        "linked_bauteilgruppen": 1,
        "linked_projekte": "p_biopartner_5_leiden_oegstgeest",
        "source_url": "https://www.biopartnerleiden.nl/contact_en/",
        "notes": ""
      }
    },
    {
      "type": "Feature",
      "geometry": {
        "type": "Point",
        "coordinates": [
          -0.0999825,
          51.5024846
        ]
      },
      "properties": {
        "bauwerk_id": "bw_blackfriars_crown_court_bestand",
        "bauwerk_name": "Blackfriars Crown Court…",
        "address": "1-15 Pocock Street, London SE1 0BT, UK",
        "confidence": "high",
        "evidence_status": "verified_street",
        "staedte": "",
        "laender": "",
        "linked_bauteilgruppen": 1,
        "linked_projekte": "p_roots_in_the_sky_blackfriars_crown_court",
        "source_url": "https://en.wikipedia.org/wiki/Blackfriars_Crown_Court",
        "notes": ""
      }
    },
    {
      "type": "Feature",
      "geometry": {
        "type": "Point",
        "coordinates": [
          4.5007164,
          51.9196447
        ]
      },
      "properties": {
        "bauwerk_id": "bw_bluecity_tropicana_rotterdam",
        "bauwerk_name": "Tropicana Rotterdam",
        "address": "Maasboulevard 100, 3063 NS Rotterdam, Netherlands",
        "confidence": "high",
        "evidence_status": "verified_street",
        "staedte": "",
        "laender": "Niederlande",
        "linked_bauteilgruppen": 1,
        "linked_projekte": "p_bluecity_offices_rotterdam",
        "source_url": "https://www.bluecity.nl/",
        "notes": ""
      }
    },
    {
      "type": "Feature",
      "geometry": {
        "type": "Point",
        "coordinates": [
          -71.1191462,
          42.3882451
        ]
      },
      "properties": {
        "bauwerk_id": "bw_boston_big_dig_i_93_infrastructure",
        "bauwerk_name": "Big Dig (I-93)",
        "address": "I-93 Big Dig corridor, Boston/Cambridge, MA, USA",
        "confidence": "low",
        "evidence_status": "infrastructure_corridor",
        "staedte": "Boston",
        "laender": "USA",
        "linked_bauteilgruppen": 3,
        "linked_projekte": "p_big_dig_house_lexington_massachusetts",
        "source_url": "https://www.projectarchitects.com/projects/big-dig-house",
        "notes": ""
      }
    },
    {
      "type": "Feature",
      "geometry": {
        "type": "Point",
        "coordinates": [
          -105.270545,
          40.0149856
        ]
      },
      "properties": {
        "bauwerk_id": "bw_boulder_community_hospital",
        "bauwerk_name": "Boulder Community…",
        "address": "Boulder, CO, USA (Community Hospital donor context)",
        "confidence": "low",
        "evidence_status": "city_only",
        "staedte": "Boulder, Colorado",
        "laender": "USA",
        "linked_bauteilgruppen": 2,
        "linked_projekte": "p_boulder_fire_station_3",
        "source_url": "processed",
        "notes": ""
      }
    },
    {
      "type": "Feature",
      "geometry": {
        "type": "Point",
        "coordinates": [
          -0.1411137,
          50.8288719
        ]
      },
      "properties": {
        "bauwerk_id": "bw_brighton_railway_station_donor",
        "bauwerk_name": "Brighton Railway…",
        "address": "Brighton Railway Station, Queens Road, Brighton BN1 3XP, UK",
        "confidence": "medium",
        "evidence_status": "verified_station",
        "staedte": "",
        "laender": "",
        "linked_bauteilgruppen": 1,
        "linked_projekte": "p_bedzed_london_hackbridge",
        "source_url": "https://www.construction21.org/articles/h/the-brighton-waste-house.html",
        "notes": ""
      }
    },
    {
      "type": "Feature",
      "geometry": {
        "type": "Point",
        "coordinates": [
          10.5676346,
          51.2502813
        ]
      },
      "properties": {
        "bauwerk_id": "bw_christus_pavillon_expo_hannover",
        "bauwerk_name": "Christus-Pavillon EXPO…",
        "address": "EXPO 2000 Hannover / Kloster Volkenroda, 99994 Volkenroda, Germany",
        "confidence": "medium",
        "evidence_status": "multi_site",
        "staedte": "Hannover",
        "laender": "Deutschland",
        "linked_bauteilgruppen": 6,
        "linked_projekte": "p_christ_pavilion_volkenroda",
        "source_url": "archive:Christ_Pavilion_Volkenroda.md",
        "notes": ""
      }
    },
    {
      "type": "Feature",
      "geometry": {
        "type": "Point",
        "coordinates": [
          -0.3061681,
          49.1916221
        ]
      },
      "properties": {
        "bauwerk_id": "bw_colombelles_regional_donor_sources",
        "bauwerk_name": "Regionale Rückbau- und…",
        "address": "Rue des Ateliers, 14460 Colombelles, France",
        "confidence": "medium",
        "evidence_status": "regional_hub",
        "staedte": "Colombelles",
        "laender": "Frankreich",
        "linked_bauteilgruppen": 7,
        "linked_projekte": "p_grande_halle_de_colombelles",
        "source_url": "https://opalis.eu/fr/projets/grande-halle-de-colombelles",
        "notes": ""
      }
    },
    {
      "type": "Feature",
      "geometry": {
        "type": "Point",
        "coordinates": [
          13.3951309,
          52.5173885
        ]
      },
      "properties": {
        "bauwerk_id": "bw_crclr_external_reuse_sources",
        "bauwerk_name": "Externe Reuse-Quellen…",
        "address": "Berlin (external reuse sources, no single site)",
        "confidence": "low",
        "evidence_status": "multi_site_program",
        "staedte": "Berlin",
        "laender": "Deutschland",
        "linked_bauteilgruppen": 4,
        "linked_projekte": "p_crclr_house_impact_hub_berlin",
        "source_url": "https://www.buildingsocialecology.org/projects/crclr-house-berlin/",
        "notes": ""
      }
    },
    {
      "type": "Feature",
      "geometry": {
        "type": "Point",
        "coordinates": [
          12.481879,
          55.74061
        ]
      },
      "properties": {
        "bauwerk_id": "bw_ehemalige_gladsaxe_school",
        "bauwerk_name": "Ehemalige Gladsaxe School",
        "address": "Tobaksvejen 6, 2860 Søborg, Denmark",
        "confidence": "high",
        "evidence_status": "verified_street",
        "staedte": "Gladsaxe",
        "laender": "Dänemark",
        "linked_bauteilgruppen": 6,
        "linked_projekte": "p_svanen_kindergarten_gladsaxe",
        "source_url": "archive:Svanen_Kindergarten_Gladsaxe.md",
        "notes": ""
      }
    },
    {
      "type": "Feature",
      "geometry": {
        "type": "Point",
        "coordinates": [
          5.4512607,
          50.6547149
        ]
      },
      "properties": {
        "bauwerk_id": "bw_ehemalige_reithalle_bei_liege_bierset",
        "bauwerk_name": "Ehemalige Reithalle bei…",
        "address": "Bierset, Liège, Belgium",
        "confidence": "low",
        "evidence_status": "area_only",
        "staedte": "",
        "laender": "",
        "linked_bauteilgruppen": 1,
        "linked_projekte": "p_recypark_demets_anderlecht",
        "source_url": "processed",
        "notes": ""
      }
    },
    {
      "type": "Feature",
      "geometry": {
        "type": "Point",
        "coordinates": [
          9.7385532,
          52.3744779
        ]
      },
      "properties": {
        "bauwerk_id": "bw_ehemaliges_haus_der_jugend_hannover",
        "bauwerk_name": "ehemaliges Haus der…",
        "address": "Hannover, Germany (former Haus der Jugend)",
        "confidence": "low",
        "evidence_status": "city_only",
        "staedte": "Hannover",
        "laender": "Deutschland",
        "linked_bauteilgruppen": 2,
        "linked_projekte": "p_recyclinghaus_hannover",
        "source_url": "archive:Recyclinghaus_Hannover.md",
        "notes": ""
      }
    },
    {
      "type": "Feature",
      "geometry": {
        "type": "Point",
        "coordinates": [
          8.5410422,
          47.3744489
        ]
      },
      "properties": {
        "bauwerk_id": "bw_einkaufswagendepot_zuerich",
        "bauwerk_name": "Ehemaliges Einkaufswagen…",
        "address": "Zürich, Switzerland (former shopping-cart depot)",
        "confidence": "low",
        "evidence_status": "city_only",
        "staedte": "Zürich",
        "laender": "Schweiz",
        "linked_bauteilgruppen": 1,
        "linked_projekte": "p_kindergarten_moeoeslistrasse_manegg_zuerich",
        "source_url": "processed",
        "notes": ""
      }
    },
    {
      "type": "Feature",
      "geometry": {
        "type": "Point",
        "coordinates": [
          7.5734396,
          47.573746
        ]
      },
      "properties": {
        "bauwerk_id": "bw_elys_basel_donor",
        "bauwerk_name": "ELYS-Projekt Basel",
        "address": "Elsässerstrasse 215, 4056 Basel, Switzerland",
        "confidence": "high",
        "evidence_status": "verified_street",
        "staedte": "Basel",
        "laender": "Schweiz",
        "linked_bauteilgruppen": 1,
        "linked_projekte": "p_k118_kopfbau_halle_118_winterthur",
        "source_url": "processed+ELYS",
        "notes": ""
      }
    },
    {
      "type": "Feature",
      "geometry": {
        "type": "Point",
        "coordinates": [
          7.5734396,
          47.573746
        ]
      },
      "properties": {
        "bauwerk_id": "bw_elys_former_coop_distribution_center",
        "bauwerk_name": "Ehemaliges Coop-Verteilz…",
        "address": "Elsässerstrasse 215, 4056 Basel, Switzerland",
        "confidence": "high",
        "evidence_status": "verified_street",
        "staedte": "Basel",
        "laender": "Schweiz",
        "linked_bauteilgruppen": 2,
        "linked_projekte": "p_elys_kultur_gewerbehaus_basel",
        "source_url": "processed+ELYS",
        "notes": ""
      }
    },
    {
      "type": "Feature",
      "geometry": {
        "type": "Point",
        "coordinates": [
          2.3627508,
          48.9383732
        ]
      },
      "properties": {
        "bauwerk_id": "bw_engie_baustelle_saint_denis",
        "bauwerk_name": "ENGIE-Baustelle Saint-De…",
        "address": "Saint-Denis, France (ENGIE construction site)",
        "confidence": "low",
        "evidence_status": "city_only",
        "staedte": "",
        "laender": "",
        "linked_bauteilgruppen": 2,
        "linked_projekte": "p_resilience_la_ferme_des_possibles_stains",
        "source_url": "processed",
        "notes": ""
      }
    },
    {
      "type": "Feature",
      "geometry": {
        "type": "Point",
        "coordinates": [
          10.1332512,
          56.1582601
        ]
      },
      "properties": {
        "bauwerk_id": "bw_gellerupparken_rueckbau_wohnbloecke",
        "bauwerk_name": "Gellerupparken Rückbau-W…",
        "address": "Gellerupparken, Aarhus, Denmark",
        "confidence": "low",
        "evidence_status": "district_only",
        "staedte": "",
        "laender": "",
        "linked_bauteilgruppen": 1,
        "linked_projekte": "p_trae_high_rise_aarhus",
        "source_url": "processed",
        "notes": ""
      }
    },
    {
      "type": "Feature",
      "geometry": {
        "type": "Point",
        "coordinates": [
          4.3604784,
          50.8455758
        ]
      },
      "properties": {
        "bauwerk_id": "bw_generale_de_banque_brussels",
        "bauwerk_name": "Gén. de Banque BXL",
        "address": "Rue Montagne du Parc 3, 1000 Brussels, Belgium",
        "confidence": "high",
        "evidence_status": "verified_street",
        "staedte": "Brüssel",
        "laender": "Belgien",
        "linked_bauteilgruppen": 1,
        "linked_projekte": "p_umar_unit",
        "source_url": "https://rotordc.com/blog/salvaging-by-rotordc-3/generale-banks-hq-brussels-72",
        "notes": ""
      }
    },
    {
      "type": "Feature",
      "geometry": {
        "type": "Point",
        "coordinates": [
          4.4609833,
          52.1677621
        ]
      },
      "properties": {
        "bauwerk_id": "bw_gorlaeus_hochhaus",
        "bauwerk_name": "Gorlaeus Hochhaus",
        "address": "Einsteinweg 55, 2333 CC Leiden, Netherlands",
        "confidence": "high",
        "evidence_status": "verified_street",
        "staedte": "Leiden",
        "laender": "Niederlande",
        "linked_bauteilgruppen": 2,
        "linked_projekte": "p_biopartner_5_leiden_oegstgeest",
        "source_url": "https://www.student.universiteitleiden.nl/en/locations/gorlaeus-building",
        "notes": ""
      }
    },
    {
      "type": "Feature",
      "geometry": {
        "type": "Point",
        "coordinates": [
          8.5636654,
          47.415759
        ]
      },
      "properties": {
        "bauwerk_id": "bw_hagenholz_recyclinghalle",
        "bauwerk_name": "Ehemalige Recyclinghalle…",
        "address": "Hagenholzstrasse area, Zürich, Switzerland",
        "confidence": "low",
        "evidence_status": "area_only",
        "staedte": "Zürich",
        "laender": "Schweiz",
        "linked_bauteilgruppen": 1,
        "linked_projekte": "p_juch_areal_recyclingzentrum_zuerich",
        "source_url": "archive",
        "notes": ""
      }
    },
    {
      "type": "Feature",
      "geometry": {
        "type": "Point",
        "coordinates": [
          0.5725697,
          50.8521015
        ]
      },
      "properties": {
        "bauwerk_id": "bw_hastings_pier_fire_damaged_deck",
        "bauwerk_name": "Brandschaden",
        "address": "Hastings Pier, Hastings TN34 1JY, UK",
        "confidence": "medium",
        "evidence_status": "verified_structure",
        "staedte": "Hastings",
        "laender": "Vereinigtes Königreich",
        "linked_bauteilgruppen": 2,
        "linked_projekte": "p_hastings_pier_visitor_centre",
        "source_url": "https://www.drmm.co.uk/project/hastings-pier/",
        "notes": ""
      }
    },
    {
      "type": "Feature",
      "geometry": {
        "type": "Point",
        "coordinates": [
          12.4294486,
          55.7337528
        ]
      },
      "properties": {
        "bauwerk_id": "bw_herlev_dach_industrie_und_farmdaecher_als_aluminium_donor",
        "bauwerk_name": "Herlev Dach",
        "address": "Herlev, Denmark (industrial/farm roofs)",
        "confidence": "low",
        "evidence_status": "municipality_only",
        "staedte": "",
        "laender": "",
        "linked_bauteilgruppen": 1,
        "linked_projekte": "p_trae_high_rise_aarhus",
        "source_url": "processed",
        "notes": ""
      }
    },
    {
      "type": "Feature",
      "geometry": {
        "type": "Point",
        "coordinates": [
          6.0666022,
          50.8530372
        ]
      },
      "properties": {
        "bauwerk_id": "bw_hochhausflat_ursulastraat",
        "bauwerk_name": "Hochhausflat Ursulastraat",
        "address": "Ursulastraat, Bleijerheide, 6464 Kerkrade, Netherlands",
        "confidence": "medium",
        "evidence_status": "street_without_number",
        "staedte": "Bleijerheide / Kerkrade",
        "laender": "Niederlande",
        "linked_bauteilgruppen": 4,
        "linked_projekte": "p_superlocal_expogebouw_bleijerheide",
        "source_url": "https://www.superlocal.eu/expogebouw",
        "notes": ""
      }
    },
    {
      "type": "Feature",
      "geometry": {
        "type": "Point",
        "coordinates": [
          5.5755821,
          50.5783177
        ]
      },
      "properties": {
        "bauwerk_id": "bw_institut_botanique_ulg",
        "bauwerk_name": "Institut de Botanique…",
        "address": "Chemin de la Vallée 4, 4000 Liège, Belgium",
        "confidence": "high",
        "evidence_status": "verified_street",
        "staedte": "Liège / Lüttich",
        "laender": "Belgien",
        "linked_bauteilgruppen": 1,
        "linked_projekte": "p_institut_de_botanique_ulg_liege",
        "source_url": "https://opalis.eu/fr/projets/institut-de-botanique-ulg-liege",
        "notes": ""
      }
    },
    {
      "type": "Feature",
      "geometry": {
        "type": "Point",
        "coordinates": [
          12.1346523,
          50.4950632
        ]
      },
      "properties": {
        "bauwerk_id": "bw_iw73_6_mass_housing_donor",
        "bauwerk_name": "IW73/6 mass-housing…",
        "address": "Plauen, 08527, Germany",
        "confidence": "low",
        "evidence_status": "city_only",
        "staedte": "Plauen",
        "laender": "",
        "linked_bauteilgruppen": 1,
        "linked_projekte": "p_association_house_plauen",
        "source_url": "archive:Association_house_Plauen.md",
        "notes": ""
      }
    },
    {
      "type": "Feature",
      "geometry": {
        "type": "Point",
        "coordinates": [
          10.737562,
          59.916806
        ]
      },
      "properties": {
        "bauwerk_id": "bw_ka13_existing_building",
        "bauwerk_name": "KA13 Bestandsgebäude…",
        "address": "Kristian Augusts gate 13, 0164 Oslo, Norway",
        "confidence": "high",
        "evidence_status": "verified_street",
        "staedte": "Oslo",
        "laender": "Norwegen",
        "linked_bauteilgruppen": 1,
        "linked_projekte": "p_ka13_kristian_augusts_gate_13_oslo",
        "source_url": "archive:KA13_Kristian_Augusts_gate_13_Oslo.md",
        "notes": ""
      }
    },
    {
      "type": "Feature",
      "geometry": {
        "type": "Point",
        "coordinates": [
          134.4018864,
          33.8889228
        ]
      },
      "properties": {
        "bauwerk_id": "bw_kamikatsu_local_houses",
        "bauwerk_name": "Lokale Häuser und…",
        "address": "Kamikatsu, Tokushima 771-4501, Japan",
        "confidence": "low",
        "evidence_status": "municipality_only",
        "staedte": "Kamikatsu, Tokushima Prefecture",
        "laender": "Japan",
        "linked_bauteilgruppen": 4,
        "linked_projekte": "p_kamikatsu_zero_waste_center_hotel_why",
        "source_url": "https://why-kamikatsu.jp/",
        "notes": ""
      }
    },
    {
      "type": "Feature",
      "geometry": {
        "type": "Point",
        "coordinates": [
          134.4018864,
          33.8889228
        ]
      },
      "properties": {
        "bauwerk_id": "bw_kamikatsu_old_town_hall",
        "bauwerk_name": "Altes Rathaus Kamikatsu",
        "address": "Kamikatsu, Tokushima 771-4501, Japan",
        "confidence": "low",
        "evidence_status": "municipality_only",
        "staedte": "Kamikatsu, Tokushima Prefecture",
        "laender": "Japan",
        "linked_bauteilgruppen": 1,
        "linked_projekte": "p_kamikatsu_zero_waste_center_hotel_why",
        "source_url": "https://why-kamikatsu.jp/",
        "notes": ""
      }
    },
    {
      "type": "Feature",
      "geometry": {
        "type": "Point",
        "coordinates": [
          4.3155803,
          50.8614034
        ]
      },
      "properties": {
        "bauwerk_id": "bw_karreveld_buerogebaeude_zu_schule_und_sportzentrum",
        "bauwerk_name": "Karreveld Bürogebäude…",
        "address": "Karreveld, Sint-Jans-Molenbeek, Brussels, Belgium",
        "confidence": "low",
        "evidence_status": "district_only",
        "staedte": "Brüssel",
        "laender": "",
        "linked_bauteilgruppen": 2,
        "linked_projekte": "p_verbiest_karreveld_brussels",
        "source_url": "archive:Verbiest_Karreveld_Brussels.md",
        "notes": ""
      }
    },
    {
      "type": "Feature",
      "geometry": {
        "type": "Point",
        "coordinates": [
          5.1079133,
          52.0868182
        ]
      },
      "properties": {
        "bauwerk_id": "bw_knoopkazerne_utrecht",
        "bauwerk_name": "Ehemalige Knoopkazerne",
        "address": "Croeselaan 16, 3521 CA Utrecht, Netherlands",
        "confidence": "high",
        "evidence_status": "verified_street",
        "staedte": "Utrecht",
        "laender": "Niederlande",
        "linked_bauteilgruppen": 2,
        "linked_projekte": "p_the_green_house_utrecht",
        "source_url": "https://www.thegreenhouserestaurant.nl/",
        "notes": ""
      }
    },
    {
      "type": "Feature",
      "geometry": {
        "type": "Point",
        "coordinates": [
          10.3212678,
          51.3878458
        ]
      },
      "properties": {
        "bauwerk_id": "bw_leinefelde_plattenbau_donor",
        "bauwerk_name": "Rückbaustelle",
        "address": "Leinefelde, 37339, Germany",
        "confidence": "low",
        "evidence_status": "city_only",
        "staedte": "Leinefelde",
        "laender": "Deutschland",
        "linked_bauteilgruppen": 3,
        "linked_projekte": "p_haus_hos_mehrfamilienhaus_muehlhausen",
        "source_url": "archive:Haus_HOS_Mehrfamilienhaus_Muehlhausen.md",
        "notes": ""
      }
    },
    {
      "type": "Feature",
      "geometry": {
        "type": "Point",
        "coordinates": [
          6.1136808,
          49.6249025
        ]
      },
      "properties": {
        "bauwerk_id": "bw_lycee_block_3000",
        "bauwerk_name": "Lycée Lucius B3000",
        "address": "157 Avenue Pasteur, L-2311 Luxembourg",
        "confidence": "high",
        "evidence_status": "verified_street",
        "staedte": "Luxembourg-Limpertsberg",
        "laender": "Luxemburg",
        "linked_bauteilgruppen": 7,
        "linked_projekte": "p_lycee_michel_lucius_conversion_luxembourg",
        "source_url": "https://opalis.eu/fr/projets/lycee-michel-lucius",
        "notes": ""
      }
    },
    {
      "type": "Feature",
      "geometry": {
        "type": "Point",
        "coordinates": [
          7.5738216,
          47.5726315
        ]
      },
      "properties": {
        "bauwerk_id": "bw_lysbueechel_garage_basel",
        "bauwerk_name": "Lysbüchel Parkgarage",
        "address": "Weinlagerstrasse 33, 4056 Basel, Switzerland",
        "confidence": "high",
        "evidence_status": "verified_street",
        "staedte": "Basel",
        "laender": "Schweiz",
        "linked_bauteilgruppen": 2,
        "linked_projekte": "p_elementa_walkeweg",
        "source_url": "https://www.lagerplatz.ch/kopfbau-halle-118",
        "notes": ""
      }
    },
    {
      "type": "Feature",
      "geometry": {
        "type": "Point",
        "coordinates": [
          13.676873,
          52.5511184
        ]
      },
      "properties": {
        "bauwerk_id": "bw_marzahn_wbs70_eleven_storey_donor",
        "bauwerk_name": "Abgerissener Marzahner…",
        "address": "Berlin-Marzahn, Germany",
        "confidence": "low",
        "evidence_status": "district_only",
        "staedte": "Berlin-Marzahn",
        "laender": "Deutschland",
        "linked_bauteilgruppen": 2,
        "linked_projekte": "p_mehrow_pilot_house",
        "source_url": "archive:Berlin_Schildow_Pilot_House.md",
        "notes": ""
      }
    },
    {
      "type": "Feature",
      "geometry": {
        "type": "Point",
        "coordinates": [
          16.3460235,
          48.2163314
        ]
      },
      "properties": {
        "bauwerk_id": "bw_meduni_campus_mariannengasse",
        "bauwerk_name": "MedUni Campus Wien",
        "address": "Mariannengasse, 1090 Vienna, Austria",
        "confidence": "medium",
        "evidence_status": "street_without_number",
        "staedte": "Wien",
        "laender": "Österreich",
        "linked_bauteilgruppen": 4,
        "linked_projekte": "p_meduni_campus_mariannengasse",
        "source_url": "PLAN_v2.md",
        "notes": ""
      }
    },
    {
      "type": "Feature",
      "geometry": {
        "type": "Point",
        "coordinates": [
          4.351774,
          50.8507197
        ]
      },
      "properties": {
        "bauwerk_id": "bw_multi_brouckere_tower",
        "bauwerk_name": "Ehemaliger Philips",
        "address": "Boulevard Anspach / De Brouckère, 1000 Brussels, Belgium",
        "confidence": "medium",
        "evidence_status": "verified_area",
        "staedte": "Brüssel",
        "laender": "Belgien",
        "linked_bauteilgruppen": 2,
        "linked_projekte": "p_multi_brussels_reuse_in_multi",
        "source_url": "archive:Multi_Brussels_Reuse_in_MULTI.md",
        "notes": ""
      }
    },
    {
      "type": "Feature",
      "geometry": {
        "type": "Point",
        "coordinates": [
          11.5477603,
          48.1803734
        ]
      },
      "properties": {
        "bauwerk_id": "bw_olympisches_dorf_bungalows_muenchen",
        "bauwerk_name": "Bungalows des Olympische…",
        "address": "Connollystraße 3, 80809 München, Germany",
        "confidence": "high",
        "evidence_status": "verified_street",
        "staedte": "München",
        "laender": "Deutschland",
        "linked_bauteilgruppen": 1,
        "linked_projekte": "p_bestandverplanzung_pavilion_muenchen",
        "source_url": "https://www.plattenvereinigung.de/project/orte/",
        "notes": ""
      }
    },
    {
      "type": "Feature",
      "geometry": {
        "type": "Point",
        "coordinates": [
          11.5477603,
          48.1803734
        ]
      },
      "properties": {
        "bauwerk_id": "bw_olympisches_dorf_muenchen",
        "bauwerk_name": "Olympisches Dorf München",
        "address": "Connollystraße 3, 80809 München, Germany",
        "confidence": "high",
        "evidence_status": "verified_street",
        "staedte": "München",
        "laender": "Deutschland",
        "linked_bauteilgruppen": 4,
        "linked_projekte": "p_plattenvereinigung_berlin",
        "source_url": "https://www.plattenvereinigung.de/project/orte/",
        "notes": ""
      }
    },
    {
      "type": "Feature",
      "geometry": {
        "type": "Point",
        "coordinates": [
          8.5177021,
          47.3917725
        ]
      },
      "properties": {
        "bauwerk_id": "bw_orion_zuerich_donor",
        "bauwerk_name": "Orion-Bürogebäude Zürich",
        "address": "Förrlibuckstrasse 178/180, 8005 Zürich, Switzerland",
        "confidence": "high",
        "evidence_status": "verified_street",
        "staedte": "Zürich",
        "laender": "Schweiz",
        "linked_bauteilgruppen": 1,
        "linked_projekte": "p_k118_kopfbau_halle_118_winterthur",
        "source_url": "https://www.psp.info/medien/medienmitteilungen/alle-artikel/building-permit-obtained-for-project-orion-in-zurich-west",
        "notes": ""
      }
    },
    {
      "type": "Feature",
      "geometry": {
        "type": "Point",
        "coordinates": [
          4.444528,
          50.4116233
        ]
      },
      "properties": {
        "bauwerk_id": "bw_palais_des_expositions_charleroi",
        "bauwerk_name": "Palais des Expositions…",
        "address": "Charleroi, Belgium (Palais des Expositions)",
        "confidence": "low",
        "evidence_status": "city_only",
        "staedte": "",
        "laender": "",
        "linked_bauteilgruppen": 3,
        "linked_projekte": "p_verbiest_karreveld_brussels",
        "source_url": "processed",
        "notes": ""
      }
    },
    {
      "type": "Feature",
      "geometry": {
        "type": "Point",
        "coordinates": [
          13.4007352,
          52.5172152
        ]
      },
      "properties": {
        "bauwerk_id": "bw_palast_der_republik_berlin",
        "bauwerk_name": "Palast der Republik…",
        "address": "Schloßplatz 1, 10178 Berlin, Germany (former site)",
        "confidence": "medium",
        "evidence_status": "former_site",
        "staedte": "Berlin",
        "laender": "Deutschland",
        "linked_bauteilgruppen": 1,
        "linked_projekte": "p_plattenpalast_berlin",
        "source_url": "archive",
        "notes": ""
      }
    },
    {
      "type": "Feature",
      "geometry": {
        "type": "Point",
        "coordinates": [
          6.8705957,
          52.2233633
        ]
      },
      "properties": {
        "bauwerk_id": "bw_paternoster_textilindustriemaschine_enschede",
        "bauwerk_name": "Paternoster-",
        "address": "Enschede, Netherlands",
        "confidence": "low",
        "evidence_status": "city_only",
        "staedte": "",
        "laender": "",
        "linked_bauteilgruppen": 1,
        "linked_projekte": "p_villa_welpeloo_enschede",
        "source_url": "archive:Villa_Welpeloo_Enschede.md",
        "notes": ""
      }
    },
    {
      "type": "Feature",
      "geometry": {
        "type": "Point",
        "coordinates": [
          13.3834015,
          52.5419669
        ]
      },
      "properties": {
        "bauwerk_id": "bw_peter_behrens_halle_berlin",
        "bauwerk_name": "Peter-Behrens-Halle…",
        "address": "Gustav-Meyer-Allee 25, 13355 Berlin, Germany",
        "confidence": "high",
        "evidence_status": "verified_street",
        "staedte": "Berlin",
        "laender": "Deutschland",
        "linked_bauteilgruppen": 1,
        "linked_projekte": "p_plattenpalast_berlin",
        "source_url": "https://www.plattenvereinigung.de/project/orte/",
        "notes": ""
      }
    },
    {
      "type": "Feature",
      "geometry": {
        "type": "Point",
        "coordinates": [
          13.3834015,
          52.5419669
        ]
      },
      "properties": {
        "bauwerk_id": "bw_peter_behrens_halle_tu_berlin",
        "bauwerk_name": "Peter-Behrens-Halle TU…",
        "address": "Gustav-Meyer-Allee 25, 13355 Berlin, Germany",
        "confidence": "high",
        "evidence_status": "verified_street",
        "staedte": "Berlin",
        "laender": "Deutschland",
        "linked_bauteilgruppen": 3,
        "linked_projekte": "p_plattenvereinigung_berlin",
        "source_url": "https://www.tu.berlin/bau/forschung/infrastruktur",
        "notes": ""
      }
    },
    {
      "type": "Feature",
      "geometry": {
        "type": "Point",
        "coordinates": [
          14.534605,
          52.3294882
        ]
      },
      "properties": {
        "bauwerk_id": "bw_ph12_punkthochhaus_frankfurt_oder",
        "bauwerk_name": "PH12-Punkthochhaus…",
        "address": "Robert-Havemann-Straße 12-13, 15230 Frankfurt (Oder), Germany",
        "confidence": "high",
        "evidence_status": "verified_street",
        "staedte": "Frankfurt (Oder)",
        "laender": "Deutschland",
        "linked_bauteilgruppen": 4,
        "linked_projekte": "p_plattenvereinigung_berlin",
        "source_url": "https://www.plattenvereinigung.de/project/orte/",
        "notes": ""
      }
    },
    {
      "type": "Feature",
      "geometry": {
        "type": "Point",
        "coordinates": [
          -0.0729474,
          51.5145623
        ]
      },
      "properties": {
        "bauwerk_id": "bw_plp_previous_studio_london",
        "bauwerk_name": "vorheriges PLP Studio",
        "address": "10 Whitechapel High Street, London E1 8QS, UK",
        "confidence": "high",
        "evidence_status": "verified_street",
        "staedte": "London",
        "laender": "Vereinigtes Königreich",
        "linked_bauteilgruppen": 3,
        "linked_projekte": "p_plp_london_hq_circular_studio_fitout",
        "source_url": "archive:PLP_London_HQ_Circular_Studio_Fitout.md",
        "notes": ""
      }
    },
    {
      "type": "Feature",
      "geometry": {
        "type": "Point",
        "coordinates": [
          5.9114676,
          51.9773561
        ]
      },
      "properties": {
        "bauwerk_id": "bw_prinsenhof_a_arnhem_donor",
        "bauwerk_name": "Prinsenhof A, Arnhem",
        "address": "Prinsenhof 1, 6811 Arnhem, Netherlands",
        "confidence": "high",
        "evidence_status": "verified_street",
        "staedte": "Arnhem",
        "laender": "Niederlande",
        "linked_bauteilgruppen": 3,
        "linked_projekte": "p_circular_centre_netherlands_prinsenhof_a_reuse_pilot",
        "source_url": "https://www.gelderland.nl/themas/duurzaamheid/circulaire-economie/prinsenhof",
        "notes": ""
      }
    },
    {
      "type": "Feature",
      "geometry": {
        "type": "Point",
        "coordinates": [
          10.7389701,
          59.9133301
        ]
      },
      "properties": {
        "bauwerk_id": "bw_regjeringsbygg_r4",
        "bauwerk_name": "Regjeringsbygg R4",
        "address": "Oslo, Norway (Regjeringsbygg R4)",
        "confidence": "low",
        "evidence_status": "city_only",
        "staedte": "Oslo",
        "laender": "Norwegen",
        "linked_bauteilgruppen": 1,
        "linked_projekte": "p_ka13_kristian_augusts_gate_13_oslo",
        "source_url": "processed",
        "notes": ""
      }
    },
    {
      "type": "Feature",
      "geometry": {
        "type": "Point",
        "coordinates": [
          3.8422044,
          51.298843
        ]
      },
      "properties": {
        "bauwerk_id": "bw_rws_districtskantoor_terneuzen",
        "bauwerk_name": "Ehemaliges Rijkswatersta…",
        "address": "Terneuzen, Netherlands (former Rijkswaterstaat district office)",
        "confidence": "low",
        "evidence_status": "city_only",
        "staedte": "Terneuzen",
        "laender": "Niederlande",
        "linked_bauteilgruppen": 6,
        "linked_projekte": "p_jeugdkliniek_ithaka_emergis_kloetinge",
        "source_url": "processed",
        "notes": ""
      }
    },
    {
      "type": "Feature",
      "geometry": {
        "type": "Point",
        "coordinates": [
          8.5299122,
          47.4507163
        ]
      },
      "properties": {
        "bauwerk_id": "bw_schellinghalle_ruemlang",
        "bauwerk_name": "Schellinghalle Rümlang",
        "address": "Rümlang, Switzerland (Schellinghalle)",
        "confidence": "low",
        "evidence_status": "city_only",
        "staedte": "Rümlang",
        "laender": "Schweiz",
        "linked_bauteilgruppen": 1,
        "linked_projekte": "p_juch_areal_recyclingzentrum_zuerich",
        "source_url": "processed",
        "notes": ""
      }
    },
    {
      "type": "Feature",
      "geometry": {
        "type": "Point",
        "coordinates": [
          13.3822343,
          51.4232124
        ]
      },
      "properties": {
        "bauwerk_id": "bw_school_type_dresden_donor",
        "bauwerk_name": "School type Dresden…",
        "address": "Gröditz area, 01609, Germany",
        "confidence": "low",
        "evidence_status": "city_only",
        "staedte": "Gröditz",
        "laender": "",
        "linked_bauteilgruppen": 1,
        "linked_projekte": "p_association_house_groeditz",
        "source_url": "archive:Association_house_Groeditz.md",
        "notes": ""
      }
    },
    {
      "type": "Feature",
      "geometry": {
        "type": "Point",
        "coordinates": [
          8.5329258,
          47.3610404
        ]
      },
      "properties": {
        "bauwerk_id": "bw_schulhaus_lavater",
        "bauwerk_name": "Schulhaus Lavater",
        "address": "Lavaterstrasse area, Zürich, Switzerland",
        "confidence": "low",
        "evidence_status": "area_only",
        "staedte": "Zürich",
        "laender": "Schweiz",
        "linked_bauteilgruppen": 1,
        "linked_projekte": "p_kindergarten_moeoeslistrasse_manegg_zuerich",
        "source_url": "processed",
        "notes": ""
      }
    },
    {
      "type": "Feature",
      "geometry": {
        "type": "Point",
        "coordinates": [
          9.7385532,
          52.3744779
        ]
      },
      "properties": {
        "bauwerk_id": "bw_sportzentrum_sauna_hannover",
        "bauwerk_name": "Sportzentrum",
        "address": "Hannover, Germany (sport centre sauna donor)",
        "confidence": "low",
        "evidence_status": "city_only",
        "staedte": "Hannover",
        "laender": "Deutschland",
        "linked_bauteilgruppen": 1,
        "linked_projekte": "p_recyclinghaus_hannover",
        "source_url": "archive:Recyclinghaus_Hannover.md",
        "notes": ""
      }
    },
    {
      "type": "Feature",
      "geometry": {
        "type": "Point",
        "coordinates": [
          4.4561276,
          51.5331484
        ]
      },
      "properties": {
        "bauwerk_id": "bw_stadskantoor_roosendaal",
        "bauwerk_name": "Stadskantoor Roosendaal",
        "address": "Roosendaal, Netherlands",
        "confidence": "low",
        "evidence_status": "city_only",
        "staedte": "",
        "laender": "",
        "linked_bauteilgruppen": 1,
        "linked_projekte": "p_woongroep_boschgaard_den_bosch",
        "source_url": "processed",
        "notes": ""
      }
    },
    {
      "type": "Feature",
      "geometry": {
        "type": "Point",
        "coordinates": [
          2.320041,
          48.8588897
        ]
      },
      "properties": {
        "bauwerk_id": "bw_stadt_paris_pflasterbestand",
        "bauwerk_name": "Stadt Paris Pflasterbest…",
        "address": "Paris, France (municipal paving stock)",
        "confidence": "low",
        "evidence_status": "city_only",
        "staedte": "",
        "laender": "",
        "linked_bauteilgruppen": 1,
        "linked_projekte": "p_resilience_la_ferme_des_possibles_stains",
        "source_url": "processed",
        "notes": ""
      }
    },
    {
      "type": "Feature",
      "geometry": {
        "type": "Point",
        "coordinates": [
          9.1833959,
          48.7856099
        ]
      },
      "properties": {
        "bauwerk_id": "bw_stuttgart21_hauptbahnhof",
        "bauwerk_name": "Stuttgart 21 Bhf",
        "address": "Stuttgart Hauptbahnhof, 70173 Stuttgart, Germany",
        "confidence": "medium",
        "evidence_status": "verified_station",
        "staedte": "Stuttgart",
        "laender": "Deutschland",
        "linked_bauteilgruppen": 2,
        "linked_projekte": "p_jugendtreff_ingersheim",
        "source_url": "PLAN_v2.md",
        "notes": ""
      }
    },
    {
      "type": "Feature",
      "geometry": {
        "type": "Point",
        "coordinates": [
          25.0064817,
          60.283019
        ]
      },
      "properties": {
        "bauwerk_id": "bw_suutarila_community_centre_donor",
        "bauwerk_name": "Suutarila community…",
        "address": "Suutarila, 00740 Helsinki, Finland",
        "confidence": "low",
        "evidence_status": "district_only",
        "staedte": "Helsinki",
        "laender": "Finnland",
        "linked_bauteilgruppen": 1,
        "linked_projekte": "p_melkinlaituri_primary_school_daycare_centre_helsinki",
        "source_url": "archive:Melkinlaituri_Primary_School_Daycare_Centre_Helsinki.md",
        "notes": ""
      }
    },
    {
      "type": "Feature",
      "geometry": {
        "type": "Point",
        "coordinates": [
          23.7616372,
          61.4977929
        ]
      },
      "properties": {
        "bauwerk_id": "bw_tampere_1980s_office_donor",
        "bauwerk_name": "1980er Bürogebäude im…",
        "address": "Tampere city centre office building (1980s), Finland",
        "confidence": "low",
        "evidence_status": "city_only",
        "staedte": "Tampere",
        "laender": "Finnland",
        "linked_bauteilgruppen": 2,
        "linked_projekte": "p_harmalanranta_a_kruunu_recreate_mini_pilot_tampere;p_lokomotion_technology_centre_mini_pilot_tampere",
        "source_url": "archive:Harmalanranta_A_Kruunu_ReCreate_mini_pilot_Tampere.md",
        "notes": ""
      }
    },
    {
      "type": "Feature",
      "geometry": {
        "type": "Point",
        "coordinates": [
          12.526846,
          55.706084
        ]
      },
      "properties": {
        "bauwerk_id": "bw_thoravej_29",
        "bauwerk_name": "Thoravej 29 Bestandsgebä…",
        "address": "Thoravej 29, 2400 København NV, Denmark",
        "confidence": "high",
        "evidence_status": "verified_street",
        "staedte": "Kopenhagen",
        "laender": "Dänemark",
        "linked_bauteilgruppen": 4,
        "linked_projekte": "p_thoravej_29_copenhagen",
        "source_url": "archive:Thoravej_29_Copenhagen.md",
        "notes": ""
      }
    },
    {
      "type": "Feature",
      "geometry": {
        "type": "Point",
        "coordinates": [
          -0.1000695,
          51.5050972
        ]
      },
      "properties": {
        "bauwerk_id": "bw_timber_square_print_building",
        "bauwerk_name": "Timber Square Print…",
        "address": "25 Lavington Street, London SE1 0NZ, UK",
        "confidence": "high",
        "evidence_status": "verified_street",
        "staedte": "London",
        "laender": "Vereinigtes Königreich",
        "linked_bauteilgruppen": 1,
        "linked_projekte": "p_timber_square_london",
        "source_url": "archive:Timber_Square_London.md",
        "notes": ""
      }
    },
    {
      "type": "Feature",
      "geometry": {
        "type": "Point",
        "coordinates": [
          6.7933211,
          52.3253541
        ]
      },
      "properties": {
        "bauwerk_id": "bw_twente_tkf_kabelfabrik_materialquelle",
        "bauwerk_name": "Twente",
        "address": "Twente region, Netherlands",
        "confidence": "low",
        "evidence_status": "regional_pool",
        "staedte": "",
        "laender": "",
        "linked_bauteilgruppen": 1,
        "linked_projekte": "p_villa_welpeloo_enschede",
        "source_url": "processed",
        "notes": ""
      }
    },
    {
      "type": "Feature",
      "geometry": {
        "type": "Point",
        "coordinates": [
          13.3951309,
          52.5173885
        ]
      },
      "properties": {
        "bauwerk_id": "bw_unbekannte_wbs70_plattenbauten",
        "bauwerk_name": "rückgebaute WBS70-Platte…",
        "address": "Berlin (demolished WBS70 slabs, site unknown)",
        "confidence": "low",
        "evidence_status": "city_only",
        "staedte": "Berlin",
        "laender": "Deutschland",
        "linked_bauteilgruppen": 1,
        "linked_projekte": "p_plattenpalast_berlin",
        "source_url": "archive:Mehrow_Pilot_House.md",
        "notes": ""
      }
    },
    {
      "type": "Feature",
      "geometry": {
        "type": "Point",
        "coordinates": [
          8.5284529,
          47.3457808
        ]
      },
      "properties": {
        "bauwerk_id": "bw_werkhof_moeoeslistrasse",
        "bauwerk_name": "Werkhof Mööslistrasse",
        "address": "Mööslistrasse 8, 8038 Zürich, Switzerland",
        "confidence": "high",
        "evidence_status": "verified_street",
        "staedte": "Zürich",
        "laender": "Schweiz",
        "linked_bauteilgruppen": 2,
        "linked_projekte": "p_kindergarten_moeoeslistrasse_manegg_zuerich",
        "source_url": "archive:Kindergarten_Moeoeslistrasse_Manegg_Zuerich.md",
        "notes": ""
      }
    },
    {
      "type": "Feature",
      "geometry": {
        "type": "Point",
        "coordinates": [
          -0.0729474,
          51.5145623
        ]
      },
      "properties": {
        "bauwerk_id": "bw_white_chapel_building_london",
        "bauwerk_name": "The White Chapel Building",
        "address": "10 Whitechapel High Street, London E1 8QS, UK",
        "confidence": "high",
        "evidence_status": "verified_street",
        "staedte": "London",
        "laender": "Vereinigtes Königreich",
        "linked_bauteilgruppen": 1,
        "linked_projekte": "p_plp_london_hq_circular_studio_fitout",
        "source_url": "archive:PLP_London_HQ_Circular_Studio_Fitout.md",
        "notes": ""
      }
    },
    {
      "type": "Feature",
      "geometry": {
        "type": "Point",
        "coordinates": [
          2.3145039,
          48.9525181
        ]
      },
      "properties": {
        "bauwerk_id": "bw_wohngebaude_sanierung_epinay_sur_seine",
        "bauwerk_name": "Wohngebäude-Sanierung…",
        "address": "Épinay-sur-Seine, France",
        "confidence": "low",
        "evidence_status": "city_only",
        "staedte": "",
        "laender": "",
        "linked_bauteilgruppen": 1,
        "linked_projekte": "p_resilience_la_ferme_des_possibles_stains",
        "source_url": "processed",
        "notes": ""
      }
    }
  ]
}