{
  "type": "FeatureCollection",
  "features": [
    {
      "type": "Feature",
      "geometry": {
        "type": "Point",
        "coordinates": [
          -0.1277653,
          51.5074456
        ]
      },
      "properties": {
        "entity_type": "Projekt",
        "projekt_id": "p_55_great_suffolk_street_london",
        "projekt_name": "55 Great Suffolk Street",
        "stadt_name": "London",
        "geo_precision": "city_centroid"
      }
    },
    {
      "type": "Feature",
      "geometry": {
        "type": "Point",
        "coordinates": [
          7.6251879,
          51.9625101
        ]
      },
      "properties": {
        "entity_type": "Projekt",
        "projekt_id": "p_awm_muenster_circular_office",
        "projekt_name": "AWM Münster – zirkulärer…",
        "stadt_name": "Münster",
        "geo_precision": "city_centroid"
      }
    },
    {
      "type": "Feature",
      "geometry": {
        "type": "Point",
        "coordinates": [
          -0.1277653,
          51.5074456
        ]
      },
      "properties": {
        "entity_type": "Projekt",
        "projekt_id": "p_bedzed_london_hackbridge",
        "projekt_name": "BedZED",
        "stadt_name": "London",
        "geo_precision": "city_centroid"
      }
    },
    {
      "type": "Feature",
      "geometry": {
        "type": "Point",
        "coordinates": [
          13.377057,
          52.6355634
        ]
      },
      "properties": {
        "entity_type": "Projekt",
        "projekt_id": "p_berlin_schildow_pilot_house",
        "projekt_name": "Berlin-Schildow Pilot",
        "stadt_name": "Schildow",
        "geo_precision": "city_centroid"
      }
    },
    {
      "type": "Feature",
      "geometry": {
        "type": "Point",
        "coordinates": [
          11.5753822,
          48.1371079
        ]
      },
      "properties": {
        "entity_type": "Projekt",
        "projekt_id": "p_bestandverplanzung_pavilion_muenchen",
        "projekt_name": "Bestandverplanzung…",
        "stadt_name": "München",
        "geo_precision": "city_centroid"
      }
    },
    {
      "type": "Feature",
      "geometry": {
        "type": "Point",
        "coordinates": [
          -71.0578303,
          42.3588336
        ]
      },
      "properties": {
        "entity_type": "Projekt",
        "projekt_id": "p_big_dig_building_boston",
        "projekt_name": "Big Dig Building",
        "stadt_name": "Boston",
        "geo_precision": "city_centroid"
      }
    },
    {
      "type": "Feature",
      "geometry": {
        "type": "Point",
        "coordinates": [
          -71.1040018,
          42.3656347
        ]
      },
      "properties": {
        "entity_type": "Projekt",
        "projekt_id": "p_big_dig_building_boston",
        "projekt_name": "Big Dig Building",
        "stadt_name": "Cambridge, Massachusetts",
        "geo_precision": "city_centroid"
      }
    },
    {
      "type": "Feature",
      "geometry": {
        "type": "Point",
        "coordinates": [
          -71.2245003,
          42.4473175
        ]
      },
      "properties": {
        "entity_type": "Projekt",
        "projekt_id": "p_big_dig_house_lexington_massachusetts",
        "projekt_name": "Big Dig House",
        "stadt_name": "Lexington, Massachusetts",
        "geo_precision": "city_centroid"
      }
    },
    {
      "type": "Feature",
      "geometry": {
        "type": "Point",
        "coordinates": [
          4.4908843,
          52.1594747
        ]
      },
      "properties": {
        "entity_type": "Projekt",
        "projekt_id": "p_biopartner_5_leiden_oegstgeest",
        "projekt_name": "BioPartner 5",
        "stadt_name": "Leiden",
        "geo_precision": "city_centroid"
      }
    },
    {
      "type": "Feature",
      "geometry": {
        "type": "Point",
        "coordinates": [
          4.4738856,
          52.185433
        ]
      },
      "properties": {
        "entity_type": "Projekt",
        "projekt_id": "p_biopartner_5_leiden_oegstgeest",
        "projekt_name": "BioPartner 5",
        "stadt_name": "Oegstgeest",
        "geo_precision": "city_centroid"
      }
    },
    {
      "type": "Feature",
      "geometry": {
        "type": "Point",
        "coordinates": [
          4.47775,
          51.9244424
        ]
      },
      "properties": {
        "entity_type": "Projekt",
        "projekt_id": "p_bluecity_offices_rotterdam",
        "projekt_name": "BlueCity Offices…",
        "stadt_name": "Rotterdam",
        "geo_precision": "city_centroid"
      }
    },
    {
      "type": "Feature",
      "geometry": {
        "type": "Point",
        "coordinates": [
          -105.270545,
          40.0149856
        ]
      },
      "properties": {
        "entity_type": "Projekt",
        "projekt_id": "p_boulder_fire_station_3",
        "projekt_name": "Boulder FS-3",
        "stadt_name": "Boulder, Colorado",
        "geo_precision": "city_centroid"
      }
    },
    {
      "type": "Feature",
      "geometry": {
        "type": "Point",
        "coordinates": [
          -0.1277653,
          51.5074456
        ]
      },
      "properties": {
        "entity_type": "Projekt",
        "projekt_id": "p_brent_cross_town_primary_substation_london",
        "projekt_name": "Brent Cross Town…",
        "stadt_name": "London",
        "geo_precision": "city_centroid"
      }
    },
    {
      "type": "Feature",
      "geometry": {
        "type": "Point",
        "coordinates": [
          -0.1400561,
          50.8214626
        ]
      },
      "properties": {
        "entity_type": "Projekt",
        "projekt_id": "p_brighton_waste_house_brighton",
        "projekt_name": "Brighton Waste House",
        "stadt_name": "Brighton",
        "geo_precision": "city_centroid"
      }
    },
    {
      "type": "Feature",
      "geometry": {
        "type": "Point",
        "coordinates": [
          14.1843401,
          51.4290081
        ]
      },
      "properties": {
        "entity_type": "Projekt",
        "projekt_id": "p_broethen_twin_house_hoyerswerda",
        "projekt_name": "Broethen Twin-House",
        "stadt_name": "Hoyerswerda / Broethen",
        "geo_precision": "city_centroid"
      }
    },
    {
      "type": "Feature",
      "geometry": {
        "type": "Point",
        "coordinates": [
          13.3951309,
          52.5173885
        ]
      },
      "properties": {
        "entity_type": "Projekt",
        "projekt_id": "p_crclr_house_impact_hub_berlin",
        "projekt_name": "CRCLR House",
        "stadt_name": "Berlin",
        "geo_precision": "city_centroid"
      }
    },
    {
      "type": "Feature",
      "geometry": {
        "type": "Point",
        "coordinates": [
          -0.1277653,
          51.5074456
        ]
      },
      "properties": {
        "entity_type": "Projekt",
        "projekt_id": "p_cascadeup_london_secondary_timber_glulam_demonstrator",
        "projekt_name": "CascadeUp",
        "stadt_name": "London",
        "geo_precision": "city_centroid"
      }
    },
    {
      "type": "Feature",
      "geometry": {
        "type": "Point",
        "coordinates": [
          4.2501187,
          50.8395994
        ]
      },
      "properties": {
        "entity_type": "Projekt",
        "projekt_id": "p_chiro_d_itterbeek_dilbeek",
        "projekt_name": "Chiro d’Itterbeek",
        "stadt_name": "Dilbeek / Itterbeek",
        "geo_precision": "city_centroid"
      }
    },
    {
      "type": "Feature",
      "geometry": {
        "type": "Point",
        "coordinates": [
          10.5655779,
          51.250281
        ]
      },
      "properties": {
        "entity_type": "Projekt",
        "projekt_id": "p_christ_pavilion_volkenroda",
        "projekt_name": "Christus-Pavillon",
        "stadt_name": "Volkenroda / Koerner",
        "geo_precision": "city_centroid"
      }
    },
    {
      "type": "Feature",
      "geometry": {
        "type": "Point",
        "coordinates": [
          4.8924534,
          52.3730796
        ]
      },
      "properties": {
        "entity_type": "Projekt",
        "projekt_id": "p_circl_abn_amro",
        "projekt_name": "Circl",
        "stadt_name": "Amsterdam",
        "geo_precision": "city_centroid"
      }
    },
    {
      "type": "Feature",
      "geometry": {
        "type": "Point",
        "coordinates": [
          5.9108573,
          51.984257
        ]
      },
      "properties": {
        "entity_type": "Projekt",
        "projekt_id": "p_circular_centre_netherlands_prinsenhof_a_reuse_pilot",
        "projekt_name": "Circular Centre Netherla…",
        "stadt_name": "Arnhem",
        "geo_precision": "city_centroid"
      }
    },
    {
      "type": "Feature",
      "geometry": {
        "type": "Point",
        "coordinates": [
          6.0413984,
          52.4056303
        ]
      },
      "properties": {
        "entity_type": "Projekt",
        "projekt_id": "p_circular_centre_netherlands_prinsenhof_a_reuse_pilot",
        "projekt_name": "Circular Centre Netherla…",
        "stadt_name": "Heerde",
        "geo_precision": "city_centroid"
      }
    },
    {
      "type": "Feature",
      "geometry": {
        "type": "Point",
        "coordinates": [
          2.3483915,
          48.8534951
        ]
      },
      "properties": {
        "entity_type": "Projekt",
        "projekt_id": "p_circular_pavilion_paris",
        "projekt_name": "Circular Pavilion Paris",
        "stadt_name": "Paris",
        "geo_precision": "city_centroid"
      }
    },
    {
      "type": "Feature",
      "geometry": {
        "type": "Point",
        "coordinates": [
          7.5878261,
          47.5581077
        ]
      },
      "properties": {
        "entity_type": "Projekt",
        "projekt_id": "p_elementa_walkeweg",
        "projekt_name": "ELEMENTA Walkeweg",
        "stadt_name": "Basel",
        "geo_precision": "city_centroid"
      }
    },
    {
      "type": "Feature",
      "geometry": {
        "type": "Point",
        "coordinates": [
          7.5878261,
          47.5581077
        ]
      },
      "properties": {
        "entity_type": "Projekt",
        "projekt_id": "p_elys_kultur_gewerbehaus_basel",
        "projekt_name": "ELYS Kultur- und…",
        "stadt_name": "Basel",
        "geo_precision": "city_centroid"
      }
    },
    {
      "type": "Feature",
      "geometry": {
        "type": "Point",
        "coordinates": [
          4.352493,
          50.8467372
        ]
      },
      "properties": {
        "entity_type": "Projekt",
        "projekt_id": "p_europa_building_brussels",
        "projekt_name": "Europa Building Brussels",
        "stadt_name": "Brüssel",
        "geo_precision": "city_centroid"
      }
    },
    {
      "type": "Feature",
      "geometry": {
        "type": "Point",
        "coordinates": [
          2.3483915,
          48.8534951
        ]
      },
      "properties": {
        "entity_type": "Projekt",
        "projekt_id": "p_ferme_du_rail_paris",
        "projekt_name": "Ferme du Rail Paris",
        "stadt_name": "Paris",
        "geo_precision": "city_centroid"
      }
    },
    {
      "type": "Feature",
      "geometry": {
        "type": "Point",
        "coordinates": [
          -0.2972472,
          49.2041204
        ]
      },
      "properties": {
        "entity_type": "Projekt",
        "projekt_id": "p_grande_halle_de_colombelles",
        "projekt_name": "Grande Halle de Colombel…",
        "stadt_name": "Colombelles",
        "geo_precision": "city_centroid"
      }
    },
    {
      "type": "Feature",
      "geometry": {
        "type": "Point",
        "coordinates": [
          8.5410422,
          47.3744489
        ]
      },
      "properties": {
        "entity_type": "Projekt",
        "projekt_id": "p_grubenstrasse_29_werkhof_29_zuerich",
        "projekt_name": "Grubenstrasse 29",
        "stadt_name": "Zürich",
        "geo_precision": "city_centroid"
      }
    },
    {
      "type": "Feature",
      "geometry": {
        "type": "Point",
        "coordinates": [
          0.5821779,
          50.8550976
        ]
      },
      "properties": {
        "entity_type": "Projekt",
        "projekt_id": "p_hastings_pier_visitor_centre",
        "projekt_name": "Hastings Pier Visitor…",
        "stadt_name": "Hastings",
        "geo_precision": "city_centroid"
      }
    },
    {
      "type": "Feature",
      "geometry": {
        "type": "Point",
        "coordinates": [
          10.4589044,
          51.2094255
        ]
      },
      "properties": {
        "entity_type": "Projekt",
        "projekt_id": "p_haus_hos_mehrfamilienhaus_muehlhausen",
        "projekt_name": "Haus HOS",
        "stadt_name": "Mühlhausen, Thüringen",
        "geo_precision": "city_centroid"
      }
    },
    {
      "type": "Feature",
      "geometry": {
        "type": "Point",
        "coordinates": [
          10.3212678,
          51.3878458
        ]
      },
      "properties": {
        "entity_type": "Projekt",
        "projekt_id": "p_haus_hos_mehrfamilienhaus_muehlhausen",
        "projekt_name": "Haus HOS",
        "stadt_name": "Leinefelde",
        "geo_precision": "city_centroid"
      }
    },
    {
      "type": "Feature",
      "geometry": {
        "type": "Point",
        "coordinates": [
          -0.1277653,
          51.5074456
        ]
      },
      "properties": {
        "entity_type": "Projekt",
        "projekt_id": "p_holbein_gardens_london",
        "projekt_name": "Holbein Gardens, London",
        "stadt_name": "London",
        "geo_precision": "city_centroid"
      }
    },
    {
      "type": "Feature",
      "geometry": {
        "type": "Point",
        "coordinates": [
          -0.1277653,
          51.5074456
        ]
      },
      "properties": {
        "entity_type": "Projekt",
        "projekt_id": "p_house_of_fraser_318_oxford_street_tbc_london_reuse_chain",
        "projekt_name": "House of Fraser",
        "stadt_name": "London",
        "geo_precision": "city_centroid"
      }
    },
    {
      "type": "Feature",
      "geometry": {
        "type": "Point",
        "coordinates": [
          23.7616372,
          61.4977929
        ]
      },
      "properties": {
        "entity_type": "Projekt",
        "projekt_id": "p_harmalanranta_a_kruunu_recreate_mini_pilot_tampere",
        "projekt_name": "Härmälänranta",
        "stadt_name": "Tampere",
        "geo_precision": "city_centroid"
      }
    },
    {
      "type": "Feature",
      "geometry": {
        "type": "Point",
        "coordinates": [
          13.3951309,
          52.5173885
        ]
      },
      "properties": {
        "entity_type": "Projekt",
        "projekt_id": "p_impact_hub_berlin_crclr_fitout",
        "projekt_name": "Impact Hub Berlin",
        "stadt_name": "Berlin",
        "geo_precision": "city_centroid"
      }
    },
    {
      "type": "Feature",
      "geometry": {
        "type": "Point",
        "coordinates": [
          5.5736112,
          50.6450944
        ]
      },
      "properties": {
        "entity_type": "Projekt",
        "projekt_id": "p_institut_de_botanique_ulg_liege",
        "projekt_name": "Institut de Botanique…",
        "stadt_name": "Liège / Lüttich",
        "geo_precision": "city_centroid"
      }
    },
    {
      "type": "Feature",
      "geometry": {
        "type": "Point",
        "coordinates": [
          3.9130606,
          51.4984694
        ]
      },
      "properties": {
        "entity_type": "Projekt",
        "projekt_id": "p_jeugdkliniek_ithaka_emergis_kloetinge",
        "projekt_name": "Jeugdkliniek Ithaka",
        "stadt_name": "Kloetinge",
        "geo_precision": "city_centroid"
      }
    },
    {
      "type": "Feature",
      "geometry": {
        "type": "Point",
        "coordinates": [
          8.5410422,
          47.3744489
        ]
      },
      "properties": {
        "entity_type": "Projekt",
        "projekt_id": "p_juch_areal_recyclingzentrum_zuerich",
        "projekt_name": "Juch-Areal Recyclingzent…",
        "stadt_name": "Zürich",
        "geo_precision": "city_centroid"
      }
    },
    {
      "type": "Feature",
      "geometry": {
        "type": "Point",
        "coordinates": [
          7.3022832,
          48.0968771
        ]
      },
      "properties": {
        "entity_type": "Projekt",
        "projekt_id": "p_jugendtreff_ingersheim",
        "projekt_name": "Jugendtreff Ingersheim",
        "stadt_name": "Ingersheim",
        "geo_precision": "city_centroid"
      }
    },
    {
      "type": "Feature",
      "geometry": {
        "type": "Point",
        "coordinates": [
          8.7291498,
          47.4991723
        ]
      },
      "properties": {
        "entity_type": "Projekt",
        "projekt_id": "p_k118_kopfbau_halle_118_winterthur",
        "projekt_name": "K.118 Winterthur",
        "stadt_name": "Winterthur",
        "geo_precision": "city_centroid"
      }
    },
    {
      "type": "Feature",
      "geometry": {
        "type": "Point",
        "coordinates": [
          10.7389701,
          59.9133301
        ]
      },
      "properties": {
        "entity_type": "Projekt",
        "projekt_id": "p_ka13_kristian_augusts_gate_13_oslo",
        "projekt_name": "KA13",
        "stadt_name": "Oslo",
        "geo_precision": "city_centroid"
      }
    },
    {
      "type": "Feature",
      "geometry": {
        "type": "Point",
        "coordinates": [
          134.4018864,
          33.8889228
        ]
      },
      "properties": {
        "entity_type": "Projekt",
        "projekt_id": "p_kamikatsu_zero_waste_center_hotel_why",
        "projekt_name": "Kamikatsu Zero Waste…",
        "stadt_name": "Kamikatsu, Tokushima Prefecture",
        "geo_precision": "city_centroid"
      }
    },
    {
      "type": "Feature",
      "geometry": {
        "type": "Point",
        "coordinates": [
          8.5410422,
          47.3744489
        ]
      },
      "properties": {
        "entity_type": "Projekt",
        "projekt_id": "p_kindergarten_moeoeslistrasse_manegg_zuerich",
        "projekt_name": "Kindergarten Mööslistras…",
        "stadt_name": "Zürich",
        "geo_precision": "city_centroid"
      }
    },
    {
      "type": "Feature",
      "geometry": {
        "type": "Point",
        "coordinates": [
          7.5878261,
          47.5581077
        ]
      },
      "properties": {
        "entity_type": "Projekt",
        "projekt_id": "p_lysp8_basel",
        "projekt_name": "LYSP8 Basel",
        "stadt_name": "Basel",
        "geo_precision": "city_centroid"
      }
    },
    {
      "type": "Feature",
      "geometry": {
        "type": "Point",
        "coordinates": [
          6.0230325,
          51.9470218
        ]
      },
      "properties": {
        "entity_type": "Projekt",
        "projekt_id": "p_liander_alliander_hq_duiven",
        "projekt_name": "Liander",
        "stadt_name": "Duiven",
        "geo_precision": "city_centroid"
      }
    },
    {
      "type": "Feature",
      "geometry": {
        "type": "Point",
        "coordinates": [
          2.7643391,
          50.9638066
        ]
      },
      "properties": {
        "entity_type": "Projekt",
        "projekt_id": "p_lo_reninge_town_hall_facade",
        "projekt_name": "Lo-Reninge Town Hall…",
        "stadt_name": "Lo-Reninge",
        "geo_precision": "city_centroid"
      }
    },
    {
      "type": "Feature",
      "geometry": {
        "type": "Point",
        "coordinates": [
          23.7616372,
          61.4977929
        ]
      },
      "properties": {
        "entity_type": "Projekt",
        "projekt_id": "p_lokomotion_technology_centre_mini_pilot_tampere",
        "projekt_name": "Lokomotion Technology…",
        "stadt_name": "Tampere",
        "geo_precision": "city_centroid"
      }
    },
    {
      "type": "Feature",
      "geometry": {
        "type": "Point",
        "coordinates": [
          6.1222912,
          49.621539
        ]
      },
      "properties": {
        "entity_type": "Projekt",
        "projekt_id": "p_lycee_michel_lucius_conversion_luxembourg",
        "projekt_name": "Lycée Michel Lucius…",
        "stadt_name": "Luxembourg-Limpertsberg",
        "geo_precision": "city_centroid"
      }
    },
    {
      "type": "Feature",
      "geometry": {
        "type": "Point",
        "coordinates": [
          4.2015646,
          50.9094333
        ]
      },
      "properties": {
        "entity_type": "Projekt",
        "projekt_id": "p_maison_dna_asse",
        "projekt_name": "Maison DnA",
        "stadt_name": "Asse",
        "geo_precision": "city_centroid"
      }
    },
    {
      "type": "Feature",
      "geometry": {
        "type": "Point",
        "coordinates": [
          4.4383633,
          50.8084174
        ]
      },
      "properties": {
        "entity_type": "Projekt",
        "projekt_id": "p_maison_vignette_auderghem",
        "projekt_name": "Maison Vignette",
        "stadt_name": "Auderghem / Brüssel",
        "geo_precision": "city_centroid"
      }
    },
    {
      "type": "Feature",
      "geometry": {
        "type": "Point",
        "coordinates": [
          2.3483915,
          48.8534951
        ]
      },
      "properties": {
        "entity_type": "Projekt",
        "projekt_id": "p_maison_des_canaux_paris",
        "projekt_name": "Maison des Canaux, Paris",
        "stadt_name": "Paris",
        "geo_precision": "city_centroid"
      }
    },
    {
      "type": "Feature",
      "geometry": {
        "type": "Point",
        "coordinates": [
          16.3725042,
          48.2083537
        ]
      },
      "properties": {
        "entity_type": "Projekt",
        "projekt_id": "p_meduni_campus_mariannengasse",
        "projekt_name": "MedUni Campus Wien",
        "stadt_name": "Wien",
        "geo_precision": "city_centroid"
      }
    },
    {
      "type": "Feature",
      "geometry": {
        "type": "Point",
        "coordinates": [
          13.6162378,
          52.569788
        ]
      },
      "properties": {
        "entity_type": "Projekt",
        "projekt_id": "p_mehrow_pilot_house",
        "projekt_name": "Mehrow Pilot House",
        "stadt_name": "Mehrow, Brandenburg",
        "geo_precision": "city_centroid"
      }
    },
    {
      "type": "Feature",
      "geometry": {
        "type": "Point",
        "coordinates": [
          24.9435408,
          60.1666204
        ]
      },
      "properties": {
        "entity_type": "Projekt",
        "projekt_id": "p_melkinlaituri_primary_school_daycare_centre_helsinki",
        "projekt_name": "Melkinlaituri Primary…",
        "stadt_name": "Helsinki",
        "geo_precision": "city_centroid"
      }
    },
    {
      "type": "Feature",
      "geometry": {
        "type": "Point",
        "coordinates": [
          4.2541194,
          51.9219917
        ]
      },
      "properties": {
        "entity_type": "Projekt",
        "projekt_id": "p_montessori_maassluis",
        "projekt_name": "Montessori Maassluis",
        "stadt_name": "Maassluis",
        "geo_precision": "city_centroid"
      }
    },
    {
      "type": "Feature",
      "geometry": {
        "type": "Point",
        "coordinates": [
          4.352493,
          50.8467372
        ]
      },
      "properties": {
        "entity_type": "Projekt",
        "projekt_id": "p_multi_brussels_reuse_in_multi",
        "projekt_name": "Multi Brussels",
        "stadt_name": "Brüssel",
        "geo_precision": "city_centroid"
      }
    },
    {
      "type": "Feature",
      "geometry": {
        "type": "Point",
        "coordinates": [
          3.2142729,
          50.7436672
        ]
      },
      "properties": {
        "entity_type": "Projekt",
        "projekt_id": "p_musee_de_folklore_mouscron",
        "projekt_name": "Musée de Folklore Vie…",
        "stadt_name": "Mouscron",
        "geo_precision": "city_centroid"
      }
    },
    {
      "type": "Feature",
      "geometry": {
        "type": "Point",
        "coordinates": [
          -0.1277653,
          51.5074456
        ]
      },
      "properties": {
        "entity_type": "Projekt",
        "projekt_id": "p_plp_london_hq_circular_studio_fitout",
        "projekt_name": "PLP London HQ circular…",
        "stadt_name": "London",
        "geo_precision": "city_centroid"
      }
    },
    {
      "type": "Feature",
      "geometry": {
        "type": "Point",
        "coordinates": [
          5.478633,
          51.4392648
        ]
      },
      "properties": {
        "entity_type": "Projekt",
        "projekt_id": "p_peoples_pavilion_eindhoven",
        "projekt_name": "People’s Pavilion…",
        "stadt_name": "Eindhoven",
        "geo_precision": "city_centroid"
      }
    },
    {
      "type": "Feature",
      "geometry": {
        "type": "Point",
        "coordinates": [
          13.3951309,
          52.5173885
        ]
      },
      "properties": {
        "entity_type": "Projekt",
        "projekt_id": "p_plattenpalast_berlin",
        "projekt_name": "Plattenpalast Berlin",
        "stadt_name": "Berlin",
        "geo_precision": "city_centroid"
      }
    },
    {
      "type": "Feature",
      "geometry": {
        "type": "Point",
        "coordinates": [
          13.3951309,
          52.5173885
        ]
      },
      "properties": {
        "entity_type": "Projekt",
        "projekt_id": "p_plattenvereinigung_berlin",
        "projekt_name": "Plattenvereinigung Berlin",
        "stadt_name": "Berlin",
        "geo_precision": "city_centroid"
      }
    },
    {
      "type": "Feature",
      "geometry": {
        "type": "Point",
        "coordinates": [
          9.7385532,
          52.3744779
        ]
      },
      "properties": {
        "entity_type": "Projekt",
        "projekt_id": "p_recyclinghaus_hannover",
        "projekt_name": "Recyclinghaus Hannover",
        "stadt_name": "Hannover",
        "geo_precision": "city_centroid"
      }
    },
    {
      "type": "Feature",
      "geometry": {
        "type": "Point",
        "coordinates": [
          4.3296526,
          50.8390983
        ]
      },
      "properties": {
        "entity_type": "Projekt",
        "projekt_id": "p_recypark_demets_anderlecht",
        "projekt_name": "Recypark Demets",
        "stadt_name": "Brüssel / Anderlecht",
        "geo_precision": "city_centroid"
      }
    },
    {
      "type": "Feature",
      "geometry": {
        "type": "Point",
        "coordinates": [
          12.5700724,
          55.6867243
        ]
      },
      "properties": {
        "entity_type": "Projekt",
        "projekt_id": "p_resource_rows_copenhagen",
        "projekt_name": "Resource Rows",
        "stadt_name": "Kopenhagen",
        "geo_precision": "city_centroid"
      }
    },
    {
      "type": "Feature",
      "geometry": {
        "type": "Point",
        "coordinates": [
          -0.1277653,
          51.5074456
        ]
      },
      "properties": {
        "entity_type": "Projekt",
        "projekt_id": "p_roots_in_the_sky_blackfriars_crown_court",
        "projekt_name": "Roots in the Sky",
        "stadt_name": "London",
        "geo_precision": "city_centroid"
      }
    },
    {
      "type": "Feature",
      "geometry": {
        "type": "Point",
        "coordinates": [
          2.3825154,
          48.9565669
        ]
      },
      "properties": {
        "entity_type": "Projekt",
        "projekt_id": "p_resilience_la_ferme_des_possibles_stains",
        "projekt_name": "Résilience",
        "stadt_name": "Stains",
        "geo_precision": "city_centroid"
      }
    },
    {
      "type": "Feature",
      "geometry": {
        "type": "Point",
        "coordinates": [
          6.0664961,
          50.8528002
        ]
      },
      "properties": {
        "entity_type": "Projekt",
        "projekt_id": "p_superlocal_expogebouw_bleijerheide",
        "projekt_name": "SUPERLOCAL Expogebouw",
        "stadt_name": "Bleijerheide / Kerkrade",
        "geo_precision": "city_centroid"
      }
    },
    {
      "type": "Feature",
      "geometry": {
        "type": "Point",
        "coordinates": [
          8.5410422,
          47.3744489
        ]
      },
      "properties": {
        "entity_type": "Projekt",
        "projekt_id": "p_schaerenmoosstrasse_zuerich",
        "projekt_name": "Schärenmoosstr. ZH",
        "stadt_name": "Zürich",
        "geo_precision": "city_centroid"
      }
    },
    {
      "type": "Feature",
      "geometry": {
        "type": "Point",
        "coordinates": [
          12.4696107,
          55.7383794
        ]
      },
      "properties": {
        "entity_type": "Projekt",
        "projekt_id": "p_svanen_kindergarten_gladsaxe",
        "projekt_name": "Svanen",
        "stadt_name": "Gladsaxe",
        "geo_precision": "city_centroid"
      }
    },
    {
      "type": "Feature",
      "geometry": {
        "type": "Point",
        "coordinates": [
          10.2134046,
          56.1496278
        ]
      },
      "properties": {
        "entity_type": "Projekt",
        "projekt_id": "p_trae_high_rise_aarhus",
        "projekt_name": "TRÆ High-Rise",
        "stadt_name": "Aarhus",
        "geo_precision": "city_centroid"
      }
    },
    {
      "type": "Feature",
      "geometry": {
        "type": "Point",
        "coordinates": [
          5.1215634,
          52.0907006
        ]
      },
      "properties": {
        "entity_type": "Projekt",
        "projekt_id": "p_the_green_house_utrecht",
        "projekt_name": "The Green House Utrecht",
        "stadt_name": "Utrecht",
        "geo_precision": "city_centroid"
      }
    },
    {
      "type": "Feature",
      "geometry": {
        "type": "Point",
        "coordinates": [
          12.5700724,
          55.6867243
        ]
      },
      "properties": {
        "entity_type": "Projekt",
        "projekt_id": "p_thoravej_29_copenhagen",
        "projekt_name": "Thoravej 29 Copenhagen",
        "stadt_name": "Kopenhagen",
        "geo_precision": "city_centroid"
      }
    },
    {
      "type": "Feature",
      "geometry": {
        "type": "Point",
        "coordinates": [
          -0.1277653,
          51.5074456
        ]
      },
      "properties": {
        "entity_type": "Projekt",
        "projekt_id": "p_timber_square_london",
        "projekt_name": "Timber Square London",
        "stadt_name": "London",
        "geo_precision": "city_centroid"
      }
    },
    {
      "type": "Feature",
      "geometry": {
        "type": "Point",
        "coordinates": [
          8.6185666,
          47.3969942
        ]
      },
      "properties": {
        "entity_type": "Projekt",
        "projekt_id": "p_umar_unit",
        "projekt_name": "UMAR Unit",
        "stadt_name": "Dübendorf",
        "geo_precision": "city_centroid"
      }
    },
    {
      "type": "Feature",
      "geometry": {
        "type": "Point",
        "coordinates": [
          12.5700724,
          55.6867243
        ]
      },
      "properties": {
        "entity_type": "Projekt",
        "projekt_id": "p_upcycle_studios_copenhagen",
        "projekt_name": "Upcycle Studios Copenhag…",
        "stadt_name": "Kopenhagen",
        "geo_precision": "city_centroid"
      }
    },
    {
      "type": "Feature",
      "geometry": {
        "type": "Point",
        "coordinates": [
          4.352493,
          50.8467372
        ]
      },
      "properties": {
        "entity_type": "Projekt",
        "projekt_id": "p_verbiest_karreveld_brussels",
        "projekt_name": "Verbiest + Karreveld",
        "stadt_name": "Brüssel",
        "geo_precision": "city_centroid"
      }
    },
    {
      "type": "Feature",
      "geometry": {
        "type": "Point",
        "coordinates": [
          13.3822343,
          51.4232124
        ]
      },
      "properties": {
        "entity_type": "Projekt",
        "projekt_id": "p_association_house_groeditz",
        "projekt_name": "Vereinshaus Gröditz",
        "stadt_name": "Gröditz",
        "geo_precision": "city_centroid"
      }
    },
    {
      "type": "Feature",
      "geometry": {
        "type": "Point",
        "coordinates": [
          12.1346523,
          50.4950632
        ]
      },
      "properties": {
        "entity_type": "Projekt",
        "projekt_id": "p_association_house_plauen",
        "projekt_name": "Vereinshaus Plauen",
        "stadt_name": "Plauen",
        "geo_precision": "city_centroid"
      }
    },
    {
      "type": "Feature",
      "geometry": {
        "type": "Point",
        "coordinates": [
          6.8705957,
          52.2233633
        ]
      },
      "properties": {
        "entity_type": "Projekt",
        "projekt_id": "p_villa_welpeloo_enschede",
        "projekt_name": "Villa Welpeloo Enschede",
        "stadt_name": "Enschede",
        "geo_precision": "city_centroid"
      }
    },
    {
      "type": "Feature",
      "geometry": {
        "type": "Point",
        "coordinates": [
          5.303116,
          51.6889387
        ]
      },
      "properties": {
        "entity_type": "Projekt",
        "projekt_id": "p_woongroep_boschgaard_den_bosch",
        "projekt_name": "Woongroep Boschgaard…",
        "stadt_name": "s-Hertogenbosch",
        "geo_precision": "city_centroid"
      }
    },
    {
      "type": "Feature",
      "geometry": {
        "type": "Point",
        "coordinates": [
          4.352493,
          50.8467372
        ]
      },
      "properties": {
        "entity_type": "Projekt",
        "projekt_id": "p_zinneke_feder_masui4ever_brussels",
        "projekt_name": "Zinneke",
        "stadt_name": "Brüssel",
        "geo_precision": "city_centroid"
      }
    },
    {
      "type": "Feature",
      "geometry": {
        "type": "Point",
        "coordinates": [
          3.7588813,
          51.0447236
        ]
      },
      "properties": {
        "entity_type": "Projekt",
        "projekt_id": "p_gjg_house_gentbrugge",
        "projekt_name": "gjG House",
        "stadt_name": "Gentbrugge / Ghent",
        "geo_precision": "city_centroid"
      }
    }
  ]
}